[
    {
        "Altitude(m)": 624790.8209565803,
        "Argument of Periapsis(deg)": 0.0,
        "Eccentricity": 0.0,
        "Inclination(deg)": 60.0,
        "Latitude(deg)": -59.14719409469928,
        "Longitude(deg)": -143.9655339963156,
        "Mean Anomaly(deg)": 278.1818,
        "RAAN(deg)": 30.0,
        "Satellite Name": "Test1 149",
        "Satellite Number": 149,
        "Semi-Major Axis(m)": 6980739.136638005,
        "Time(s)": 0
    },
    {
        "Altitude(m)": 624737.4766367933,
        "Argument of Periapsis(deg)": 0.00010418945913296404,
        "Eccentricity": 0.0,
        "Inclination(deg)": 60.0,
        "Latitude(deg)": -58.99465086472203,
        "Longitude(deg)": -142.84602854779732,
        "Mean Anomaly(deg)": 278.8019061454618,
        "RAAN(deg)": 29.99957995086026,
        "Satellite Name": "Test1 149",
        "Satellite Number": 149,
        "Semi-Major Axis(m)": 6980739.136638005,
        "Time(s)": 10
    }
]